start=new Date('2023-02-21T00:00:00.000Z').valueOf();
sats=[{"CLASSIFICATION_TYPE":"U","MEAN_MOTION_DDOT":"0.0000000000000","SEMIMAJOR_AXIS":"6941.118","APOAPSIS":"566.487","MEAN_MOTION_DOT":"0.00002055","PERIOD":"95.919","SITE":"AFWTR","COUNTRY_CODE":"US","OBJECT_NAME":"STARLINK-4472","MEAN_ANOMALY":"271.2809","OBJECT_ID":"2022-105P","BSTAR":"0.00016447000000","FILE":"3815761","REF_FRAME":"TEME","MEAN_MOTION":"15.01269263","LAUNCH_DATE":"2022-08-31","CENTER_NAME":"EARTH","TIME_SYSTEM":"UTC","TLE_LINE1":"1 53661U 22105P   23051.39855928  .00002055  00000-0  16447-3 0  9998","PERIAPSIS":"559.479","INCLINATION":"97.6518","RCS_SIZE":"LARGE","RA_OF_ASC_NODE":"294.1475","TLE_LINE2":"2 53661  97.6518 294.1475 0005048  88.8993 271.2809 15.01269263 26207","ARG_OF_PERICENTER":"88.8993","DECAY_DATE":null,"EPOCH":"2023-02-20T09:33:55.521792","ECCENTRICITY":"0.00050480","REV_AT_EPOCH":"2620","ELEMENT_SET_NO":"999","EPHEMERIS_TYPE":"0","NORAD_CAT_ID":"53661","MEAN_ELEMENT_THEORY":"SGP4","GP_ID":"226160301","OBJECT_TYPE":"PAYLOAD"},{"GP_ID":"226184659","OBJECT_TYPE":"PAYLOAD","NORAD_CAT_ID":"53662","MEAN_ELEMENT_THEORY":"SGP4","ELEMENT_SET_NO":"999","EPHEMERIS_TYPE":"0","REV_AT_EPOCH":"2656","EPOCH":"2023-02-20T22:11:05.974944","ECCENTRICITY":"0.00026830","DECAY_DATE":null,"ARG_OF_PERICENTER":"85.8071","TLE_LINE2":"2 53662  97.6533 294.6606 0002683  85.8071 274.3460 15.01293812 26565","RA_OF_ASC_NODE":"294.6606","PERIAPSIS":"561.045","INCLINATION":"97.6533","RCS_SIZE":"LARGE","TLE_LINE1":"1 53662U 22105Q   23051.92437471  .00014977  00000-0  11671-2 0  9996","LAUNCH_DATE":"2022-08-31","CENTER_NAME":"EARTH","TIME_SYSTEM":"UTC","MEAN_MOTION":"15.01293812","FILE":"3816927","REF_FRAME":"TEME","BSTAR":"0.00116710000000","OBJECT_ID":"2022-105Q","MEAN_ANOMALY":"274.3460","OBJECT_NAME":"STARLINK-4357","SITE":"AFWTR","COUNTRY_CODE":"US","PERIOD":"95.917","MEAN_MOTION_DOT":"0.00014977","APOAPSIS":"564.770","CLASSIFICATION_TYPE":"U","MEAN_MOTION_DDOT":"0.0000000000000","SEMIMAJOR_AXIS":"6941.043"},{"CLASSIFICATION_TYPE":"U","MEAN_MOTION_DDOT":"0.0000000000000","SEMIMAJOR_AXIS":"6941.071","APOAPSIS":"566.238","MEAN_MOTION_DOT":"0.00007325","PERIOD":"95.918","SITE":"AFWTR","COUNTRY_CODE":"US","OBJECT_ID":"2022-105R","MEAN_ANOMALY":"272.9104","BSTAR":"0.00057384000000","OBJECT_NAME":"STARLINK-4457","MEAN_MOTION":"15.01284469","FILE":"3816927","REF_FRAME":"TEME","INCLINATION":"97.6529","PERIAPSIS":"559.635","RCS_SIZE":"LARGE","CENTER_NAME":"EARTH","LAUNCH_DATE":"2022-08-31","TIME_SYSTEM":"UTC","TLE_LINE1":"1 53663U 22105R   23051.92992032  .00007325  00000-0  57384-3 0  9997","ARG_OF_PERICENTER":"87.2664","DECAY_DATE":null,"RA_OF_ASC_NODE":"294.6682","TLE_LINE2":"2 53663  97.6529 294.6682 0004756  87.2664 272.9104 15.01284469 26569","REV_AT_EPOCH":"2656","ELEMENT_SET_NO":"999","EPHEMERIS_TYPE":"0","EPOCH":"2023-02-20T22:19:05.115648","ECCENTRICITY":"0.00047560","OBJECT_TYPE":"PAYLOAD","GP_ID":"226184661","MEAN_ELEMENT_THEORY":"SGP4","NORAD_CAT_ID":"53663"},{"FILE":"3816929","REF_FRAME":"TEME","MEAN_MOTION":"15.01290877","OBJECT_NAME":"STARLINK-4471","BSTAR":"0.00112170000000","OBJECT_ID":"2022-105S","MEAN_ANOMALY":"269.5749","COUNTRY_CODE":"US","SITE":"AFWTR","MEAN_MOTION_DOT":"0.00014390","PERIOD":"95.917","APOAPSIS":"564.755","MEAN_MOTION_DDOT":"0.0000000000000","CLASSIFICATION_TYPE":"U","SEMIMAJOR_AXIS":"6941.052","MEAN_ELEMENT_THEORY":"SGP4","NORAD_CAT_ID":"53664","GP_ID":"226184697","OBJECT_TYPE":"PAYLOAD","EPOCH":"2023-02-20T22:08:26.115936","ECCENTRICITY":"0.00026490","ELEMENT_SET_NO":"999","EPHEMERIS_TYPE":"0","REV_AT_EPOCH":"2656","TLE_LINE2":"2 53664  97.6533 294.6566 0002649  90.5779 269.5749 15.01290877 26566","RA_OF_ASC_NODE":"294.6566","DECAY_DATE":null,"ARG_OF_PERICENTER":"90.5779","TLE_LINE1":"1 53664U 22105S   23051.92252449  .00014390  00000-0  11217-2 0  9993","LAUNCH_DATE":"2022-08-31","CENTER_NAME":"EARTH","TIME_SYSTEM":"UTC","INCLINATION":"97.6533","PERIAPSIS":"561.078","RCS_SIZE":"LARGE"},{"APOAPSIS":"565.439","MEAN_MOTION_DDOT":"0.0000000000000","CLASSIFICATION_TYPE":"U","SEMIMAJOR_AXIS":"6941.090","SITE":"AFWTR","COUNTRY_CODE":"US","PERIOD":"95.918","MEAN_MOTION_DOT":"0.00006470","BSTAR":"0.00050760000000","MEAN_ANOMALY":"268.2696","OBJECT_ID":"2022-105T","OBJECT_NAME":"STARLINK-4334","MEAN_MOTION":"15.01278350","FILE":"3815761","REF_FRAME":"TEME","INCLINATION":"97.6521","PERIAPSIS":"560.472","RCS_SIZE":"LARGE","TLE_LINE1":"1 53665U 22105T   23051.39325147  .00006470  00000-0  50760-3 0  9998","CENTER_NAME":"EARTH","LAUNCH_DATE":"2022-08-31","TIME_SYSTEM":"UTC","DECAY_DATE":null,"ARG_OF_PERICENTER":"91.8938","TLE_LINE2":"2 53665  97.6521 294.1396 0003578  91.8938 268.2696 15.01278350 26203","RA_OF_ASC_NODE":"294.1396","ELEMENT_SET_NO":"999","EPHEMERIS_TYPE":"0","REV_AT_EPOCH":"2620","EPOCH":"2023-02-20T09:26:16.927008","ECCENTRICITY":"0.00035780","OBJECT_TYPE":"PAYLOAD","GP_ID":"226160802","MEAN_ELEMENT_THEORY":"SGP4","NORAD_CAT_ID":"53665"},{"COUNTRY_CODE":"US","SITE":"AFWTR","MEAN_MOTION_DOT":"0.00000047","PERIOD":"95.919","APOAPSIS":"563.912","SEMIMAJOR_AXIS":"6941.146","CLASSIFICATION_TYPE":"U","MEAN_MOTION_DDOT":"0.0000000000000","MEAN_MOTION":"15.01260113","REF_FRAME":"TEME","FILE":"3815761","BSTAR":"0.00000825950000","OBJECT_ID":"2022-105U","MEAN_ANOMALY":"256.7549","OBJECT_NAME":"STARLINK-4449","DECAY_DATE":null,"ARG_OF_PERICENTER":"103.3820","TLE_LINE2":"2 53666  97.6552 294.3188 0001297 103.3820 256.7549 15.01260113 26234","RA_OF_ASC_NODE":"294.3188","RCS_SIZE":"LARGE","PERIAPSIS":"562.111","INCLINATION":"97.6552","TLE_LINE1":"1 53666U 22105U   23051.58579712  .00000047  00000-0  82595-5 0  9996","TIME_SYSTEM":"UTC","LAUNCH_DATE":"2022-08-31","CENTER_NAME":"EARTH","OBJECT_TYPE":"PAYLOAD","GP_ID":"226161053","NORAD_CAT_ID":"53666","MEAN_ELEMENT_THEORY":"SGP4","EPHEMERIS_TYPE":"0","ELEMENT_SET_NO":"999","REV_AT_EPOCH":"2623","ECCENTRICITY":"0.00012970","EPOCH":"2023-02-20T14:03:32.871168"},{"TIME_SYSTEM":"UTC","CENTER_NAME":"EARTH","LAUNCH_DATE":"2022-08-31","TLE_LINE1":"1 53667U 22105V   23051.39300317  .00005857  00000-0  45994-3 0  9993","RCS_SIZE":"LARGE","INCLINATION":"97.6519","PERIAPSIS":"560.219","RA_OF_ASC_NODE":"294.1401","TLE_LINE2":"2 53667  97.6519 294.1401 0003951  89.0254 271.1423 15.01276328 26208","ARG_OF_PERICENTER":"89.0254","DECAY_DATE":null,"ECCENTRICITY":"0.00039510","EPOCH":"2023-02-20T09:25:55.473888","REV_AT_EPOCH":"2620","EPHEMERIS_TYPE":"0","ELEMENT_SET_NO":"999","MEAN_ELEMENT_THEORY":"SGP4","NORAD_CAT_ID":"53667","OBJECT_TYPE":"PAYLOAD","GP_ID":"226159801","SEMIMAJOR_AXIS":"6941.097","CLASSIFICATION_TYPE":"U","MEAN_MOTION_DDOT":"0.0000000000000","APOAPSIS":"565.704","MEAN_MOTION_DOT":"0.00005857","PERIOD":"95.918","SITE":"AFWTR","COUNTRY_CODE":"US","OBJECT_NAME":"STARLINK-4406","MEAN_ANOMALY":"271.1423","OBJECT_ID":"2022-105V","BSTAR":"0.00045994000000","REF_FRAME":"TEME","FILE":"3815761","MEAN_MOTION":"15.01276328"},{"TLE_LINE2":"2 53668  97.6548 294.3186 0001379  97.9970 262.1411 15.01260473 26232","RA_OF_ASC_NODE":"294.3186","DECAY_DATE":null,"ARG_OF_PERICENTER":"97.9970","TLE_LINE1":"1 53668U 22105W   23051.58554863  .00000229  00000-0  22406-4 0  9994","TIME_SYSTEM":"UTC","CENTER_NAME":"EARTH","LAUNCH_DATE":"2022-08-31","RCS_SIZE":"LARGE","INCLINATION":"97.6548","PERIAPSIS":"562.053","MEAN_ELEMENT_THEORY":"SGP4","NORAD_CAT_ID":"53668","OBJECT_TYPE":"PAYLOAD","GP_ID":"226160051","ECCENTRICITY":"0.00013790","EPOCH":"2023-02-20T14:03:11.401632","EPHEMERIS_TYPE":"0","ELEMENT_SET_NO":"999","REV_AT_EPOCH":"2623","COUNTRY_CODE":"US","SITE":"AFWTR","PERIOD":"95.919","MEAN_MOTION_DOT":"0.00000229","APOAPSIS":"563.968","SEMIMAJOR_AXIS":"6941.145","MEAN_MOTION_DDOT":"0.0000000000000","CLASSIFICATION_TYPE":"U","REF_FRAME":"TEME","FILE":"3815761","MEAN_MOTION":"15.01260473","OBJECT_NAME":"STARLINK-4458","BSTAR":"0.00002240600000","MEAN_ANOMALY":"262.1411","OBJECT_ID":"2022-105W"},{"TLE_LINE1":"1 53669U 22105X   23051.38744407  .00003882  00000-0  30667-3 0  9993","TIME_SYSTEM":"UTC","CENTER_NAME":"EARTH","LAUNCH_DATE":"2022-08-31","RCS_SIZE":"LARGE","PERIAPSIS":"561.525","INCLINATION":"97.6541","TLE_LINE2":"2 53669  97.6541 294.1240 0002141 100.5491 259.5975 15.01260146 26201","RA_OF_ASC_NODE":"294.1240","DECAY_DATE":null,"ARG_OF_PERICENTER":"100.5491","ECCENTRICITY":"0.00021410","EPOCH":"2023-02-20T09:17:55.167648","EPHEMERIS_TYPE":"0","ELEMENT_SET_NO":"999","REV_AT_EPOCH":"2620","MEAN_ELEMENT_THEORY":"SGP4","NORAD_CAT_ID":"53669","OBJECT_TYPE":"PAYLOAD","GP_ID":"226160302","APOAPSIS":"564.497","SEMIMAJOR_AXIS":"6941.146","CLASSIFICATION_TYPE":"U","MEAN_MOTION_DDOT":"0.0000000000000","COUNTRY_CODE":"US","SITE":"AFWTR","PERIOD":"95.919","MEAN_MOTION_DOT":"0.00003882","OBJECT_NAME":"STARLINK-4464","BSTAR":"0.00030667000000","OBJECT_ID":"2022-105X","MEAN_ANOMALY":"259.5975","REF_FRAME":"TEME","FILE":"3815761","MEAN_MOTION":"15.01260146"},{"ARG_OF_PERICENTER":"103.3958","DECAY_DATE":null,"RA_OF_ASC_NODE":"294.3142","TLE_LINE2":"2 53670  97.6547 294.3142 0001309 103.3958 256.7412 15.01259257 26235","RCS_SIZE":"LARGE","INCLINATION":"97.6547","PERIAPSIS":"562.106","TIME_SYSTEM":"UTC","CENTER_NAME":"EARTH","LAUNCH_DATE":"2022-08-31","TLE_LINE1":"1 53670U 22105Y   23051.58184592 -.00000050  00000-0  69572-6 0  9995","OBJECT_TYPE":"PAYLOAD","GP_ID":"226160553","MEAN_ELEMENT_THEORY":"SGP4","NORAD_CAT_ID":"53670","REV_AT_EPOCH":"2623","EPHEMERIS_TYPE":"0","ELEMENT_SET_NO":"999","ECCENTRICITY":"0.00013090","EPOCH":"2023-02-20T13:57:51.487488","PERIOD":"95.919","MEAN_MOTION_DOT":"-0.00000050","COUNTRY_CODE":"US","SITE":"AFWTR","SEMIMAJOR_AXIS":"6941.149","MEAN_MOTION_DDOT":"0.0000000000000","CLASSIFICATION_TYPE":"U","APOAPSIS":"563.923","MEAN_MOTION":"15.01259257","REF_FRAME":"TEME","FILE":"3815761","OBJECT_ID":"2022-105Y","MEAN_ANOMALY":"256.7412","BSTAR":"0.00000069572000","OBJECT_NAME":"STARLINK-4459"}];
